[{"OBJECT_NAME":"YAOGAN-40 02B","OBJECT_ID":"2025-096B","EPOCH":"2026-03-09T23:00:58.966848","MEAN_MOTION":14.12426787,"ECCENTRICITY":0.00021775,"INCLINATION":85.9909,"RA_OF_ASC_NODE":232.3937,"ARG_OF_PERICENTER":96.5499,"MEAN_ANOMALY":263.5932,"EPHEMERIS_TYPE":0,"CLASSIFICATION_TYPE":"U","NORAD_CAT_ID":63919,"ELEMENT_SET_NO":999,"REV_AT_EPOCH":4256,"BSTAR":0.00013302659,"MEAN_MOTION_DOT":2.64e-6,"MEAN_MOTION_DDOT":0},{"OBJECT_NAME":"FENGYUN 1D","OBJECT_ID":"2002-024B","EPOCH":"2026-03-09T17:55:24.248352","MEAN_MOTION":14.10209606,"ECCENTRICITY":0.00158341,"INCLINATION":98.9657,"RA_OF_ASC_NODE":119.4734,"ARG_OF_PERICENTER":159.4795,"MEAN_ANOMALY":200.7014,"EPHEMERIS_TYPE":0,"CLASSIFICATION_TYPE":"U","NORAD_CAT_ID":27431,"ELEMENT_SET_NO":999,"REV_AT_EPOCH":22546,"BSTAR":5.106698e-6,"MEAN_MOTION_DOT":-3.6e-7,"MEAN_MOTION_DDOT":0}]
